{
  "type": "FeatureCollection",
  "features": [
    {
      "type": "Feature",
      "properties": {
        "norad_id": 36744,
        "name": "COMS 1",
        "group": "weather",
        "lat": 3.2383170715722307,
        "lon": -150.38105238261514,
        "alt_km": 35784.998576238446,
        "timestamp": "2025-12-17T23:38:06.507138+00:00",
        "meta_object_name": "COMS 1",
        "meta_object_id": "2010-032A",
        "meta_epoch": "2025-12-17T13:56:11.537376",
        "meta_mean_motion": 1.00271242,
        "meta_eccentricity": 7.676e-05,
        "meta_inclination": 4.352,
        "meta_ra_of_asc_node": 77.9436,
        "meta_arg_of_pericenter": 206.0986,
        "meta_mean_anomaly": 139.6306,
        "meta_ephemeris_type": 0,
        "meta_classification_type": "U",
        "meta_norad_cat_id": 36744,
        "meta_element_set_no": 999,
        "meta_rev_at_epoch": 4926,
        "meta_bstar": 0,
        "meta_mean_motion_dot": -3.23e-06,
        "meta_mean_motion_ddot": 0,
        "tle_line1": "1 36744U 10032A   25351.58068909 -.00000323  00000+0  00000+0 0  9998",
        "tle_line2": "2 36744   4.3520  77.9436 0000767 206.0986 139.6306  1.00271242 49265"
      },
      "geometry": {
        "type": "Point",
        "coordinates": [
          -150.38105238261514,
          3.2383170715722307
        ]
      }
    },
    {
      "type": "Feature",
      "properties": {
        "norad_id": 37214,
        "name": "FENGYUN 3B",
        "group": "weather",
        "lat": 79.93464180756744,
        "lon": -84.88586441806814,
        "alt_km": 841.3960848432416,
        "timestamp": "2025-12-17T23:38:06.507152+00:00",
        "meta_object_name": "FENGYUN 3B",
        "meta_object_id": "2010-059A",
        "meta_epoch": "2025-12-17T15:27:28.696896",
        "meta_mean_motion": 14.14791426,
        "meta_eccentricity": 0.00218313,
        "meta_inclination": 98.9907,
        "meta_ra_of_asc_node": 31.6559,
        "meta_arg_of_pericenter": 343.8098,
        "meta_mean_anomaly": 176.0985,
        "meta_ephemeris_type": 0,
        "meta_classification_type": "U",
        "meta_norad_cat_id": 37214,
        "meta_element_set_no": 999,
        "meta_rev_at_epoch": 78175,
        "meta_bstar": 0.00018895556,
        "meta_mean_motion_dot": 3.2e-06,
        "meta_mean_motion_ddot": 0,
        "tle_line1": "1 37214U 10059A   25351.64408214  .00000320  00000+0  18896-3 0  9996",
        "tle_line2": "2 37214  98.9907  31.6559 0021831 343.8098 176.0985 14.14791426781753"
      },
      "geometry": {
        "type": "Point",
        "coordinates": [
          -84.88586441806814,
          79.93464180756744
        ]
      }
    },
    {
      "type": "Feature",
      "properties": {
        "norad_id": 37849,
        "name": "SUOMI NPP",
        "group": "weather",
        "lat": 23.657456054903204,
        "lon": -74.6020974443291,
        "alt_km": 826.3074901795408,
        "timestamp": "2025-12-17T23:38:06.507164+00:00",
        "meta_object_name": "SUOMI NPP",
        "meta_object_id": "2011-061A",
        "meta_epoch": "2025-12-17T15:03:51.441408",
        "meta_mean_motion": 14.19515602,
        "meta_eccentricity": 0.00023812,
        "meta_inclination": 98.7779,
        "meta_ra_of_asc_node": 288.9253,
        "meta_arg_of_pericenter": 111.6833,
        "meta_mean_anomaly": 248.4597,
        "meta_ephemeris_type": 0,
        "meta_classification_type": "U",
        "meta_norad_cat_id": 37849,
        "meta_element_set_no": 999,
        "meta_rev_at_epoch": 73268,
        "meta_bstar": 5.3617906e-05,
        "meta_mean_motion_dot": 6.9e-07,
        "meta_mean_motion_ddot": 0,
        "tle_line1": "1 37849U 11061A   25351.62767872  .00000069  00000+0  53618-4 0  9992",
        "tle_line2": "2 37849  98.7779 288.9253 0002381 111.6833 248.4597 14.19515602732683"
      },
      "geometry": {
        "type": "Point",
        "coordinates": [
          -74.6020974443291,
          23.657456054903204
        ]
      }
    },
    {
      "type": "Feature",
      "properties": {
        "norad_id": 38552,
        "name": "METEOSAT-10 (MSG-3)",
        "group": "weather",
        "lat": 1.4686301065081524,
        "lon": 81.57920044136668,
        "alt_km": 35785.707913738945,
        "timestamp": "2025-12-17T23:38:06.507176+00:00",
        "meta_object_name": "METEOSAT-10 (MSG-3)",
        "meta_object_id": "2012-035B",
        "meta_epoch": "2025-12-17T08:11:30.501600",
        "meta_mean_motion": 1.00276196,
        "meta_eccentricity": 7e-05,
        "meta_inclination": 4.2391,
        "meta_ra_of_asc_node": 61.7122,
        "meta_arg_of_pericenter": 268.6203,
        "meta_mean_anomaly": 239.0035,
        "meta_ephemeris_type": 0,
        "meta_classification_type": "U",
        "meta_norad_cat_id": 38552,
        "meta_element_set_no": 999,
        "meta_rev_at_epoch": 4903,
        "meta_bstar": 0,
        "meta_mean_motion_dot": 1.7e-07,
        "meta_mean_motion_ddot": 0,
        "tle_line1": "1 38552U 12035B   25351.34132525  .00000017  00000+0  00000+0 0  9991",
        "tle_line2": "2 38552   4.2391  61.7122 0000700 268.6203 239.0035  1.00276196 49037"
      },
      "geometry": {
        "type": "Point",
        "coordinates": [
          81.57920044136668,
          1.4686301065081524
        ]
      }
    },
    {
      "type": "Feature",
      "properties": {
        "norad_id": 38771,
        "name": "METOP-B",
        "group": "weather",
        "lat": -81.08622680731045,
        "lon": 118.73918832977783,
        "alt_km": 829.6014421902828,
        "timestamp": "2025-12-17T23:38:06.507190+00:00",
        "meta_object_name": "METOP-B",
        "meta_object_id": "2012-049A",
        "meta_epoch": "2025-12-17T13:54:44.246592",
        "meta_mean_motion": 14.21410164,
        "meta_eccentricity": 0.00030834,
        "meta_inclination": 98.6794,
        "meta_ra_of_asc_node": 41.4563,
        "meta_arg_of_pericenter": 133.8618,
        "meta_mean_anomaly": 226.2815,
        "meta_ephemeris_type": 0,
        "meta_classification_type": "U",
        "meta_norad_cat_id": 38771,
        "meta_element_set_no": 999,
        "meta_rev_at_epoch": 68746,
        "meta_bstar": 7.3661224e-05,
        "meta_mean_motion_dot": 1.17e-06,
        "meta_mean_motion_ddot": 0,
        "tle_line1": "1 38771U 12049A   25351.57967878  .00000117  00000+0  73661-4 0  9990",
        "tle_line2": "2 38771  98.6794  41.4563 0003083 133.8618 226.2815 14.21410164687469"
      },
      "geometry": {
        "type": "Point",
        "coordinates": [
          118.73918832977783,
          -81.08622680731045
        ]
      }
    },
    {
      "type": "Feature",
      "properties": {
        "norad_id": 39216,
        "name": "INSAT-3D",
        "group": "weather",
        "lat": 1.1620850795311963,
        "lon": -149.15153421468614,
        "alt_km": 35783.2038072251,
        "timestamp": "2025-12-17T23:38:06.507203+00:00",
        "meta_object_name": "INSAT-3D",
        "meta_object_id": "2013-038B",
        "meta_epoch": "2025-12-17T13:56:34.001376",
        "meta_mean_motion": 1.00267848,
        "meta_eccentricity": 0.00012075,
        "meta_inclination": 1.4568,
        "meta_ra_of_asc_node": 84.9436,
        "meta_arg_of_pericenter": 166.2542,
        "meta_mean_anomaly": 173.8823,
        "meta_ephemeris_type": 0,
        "meta_classification_type": "U",
        "meta_norad_cat_id": 39216,
        "meta_element_set_no": 999,
        "meta_rev_at_epoch": 4525,
        "meta_bstar": 0,
        "meta_mean_motion_dot": -3.16e-06,
        "meta_mean_motion_ddot": 0,
        "tle_line1": "1 39216U 13038B   25351.58094909 -.00000316  00000+0  00000+0 0  9995",
        "tle_line2": "2 39216   1.4568  84.9436 0001207 166.2542 173.8823  1.00267848 45251"
      },
      "geometry": {
        "type": "Point",
        "coordinates": [
          -149.15153421468614,
          1.1620850795311963
        ]
      }
    },
    {
      "type": "Feature",
      "properties": {
        "norad_id": 39260,
        "name": "FENGYUN 3C",
        "group": "weather",
        "lat": 50.23306375126418,
        "lon": -40.91508597565514,
        "alt_km": 841.9942733176904,
        "timestamp": "2025-12-17T23:38:06.507214+00:00",
        "meta_object_name": "FENGYUN 3C",
        "meta_object_id": "2013-052A",
        "meta_epoch": "2025-12-17T14:54:47.757312",
        "meta_mean_motion": 14.15697859,
        "meta_eccentricity": 0.00145489,
        "meta_inclination": 98.4767,
        "meta_ra_of_asc_node": 329.0625,
        "meta_arg_of_pericenter": 181.7404,
        "meta_mean_anomaly": 178.3722,
        "meta_ephemeris_type": 0,
        "meta_classification_type": "U",
        "meta_norad_cat_id": 39260,
        "meta_element_set_no": 999,
        "meta_rev_at_epoch": 63287,
        "meta_bstar": 7.3030177e-05,
        "meta_mean_motion_dot": 1.02e-06,
        "meta_mean_motion_ddot": 0,
        "tle_line1": "1 39260U 13052A   25351.62138608  .00000102  00000+0  73030-4 0  9990",
        "tle_line2": "2 39260  98.4767 329.0625 0014548 181.7404 178.3722 14.15697859632878"
      },
      "geometry": {
        "type": "Point",
        "coordinates": [
          -40.91508597565514,
          50.23306375126418
        ]
      }
    }
  ]
}